     2              NAVIGATION DATA                         RINEX VERSION / TYPE
CCRINEXN V1.6.0 UX  CDDIS               21-NOV-23 10:26     PGM / RUN BY / DATE 
IGS BROADCAST EPHEMERIS FILE                                COMMENT             
    0.2608D-07  0.0000D+00 -0.1192D-06  0.1788D-06          ION ALPHA           
    0.1393D+06 -0.1475D+06  0.6554D+05 -0.1311D+06          ION BETA            
    0.000000000000D+00 0.000000000000D+00   405504     2289 DELTA-UTC: A0,A1,T,W
    18                                                      LEAP SECONDS        
                                                            END OF HEADER       
 1 23 11 21  4  0  0.0 0.163245014846D-03 0.113686837722D-12 0.000000000000D+00
    0.300000000000D+02 0.407187500000D+02 0.391623455546D-08 0.942155843795D+00
    0.224635004997D-05 0.129631522577D-01 0.854209065437D-05 0.515402918243D+04
    0.187200000000D+06-0.145286321640D-06-0.859242271347D+00 0.139698386192D-06
    0.990504834274D+00 0.231968750000D+03 0.100149401741D+01-0.801676250177D-08
   -0.232152527228D-10 0.100000000000D+01 0.228900000000D+04 0.000000000000D+00
    0.280000000000D+01 0.630000000000D+02 0.512227416039D-08 0.300000000000D+02
    0.180018000000D+06 0.400000000000D+01 0.000000000000D+00 0.000000000000D+00
 2 23 11 21  4  0  0.0-0.526185147464D-03 0.511590769747D-11 0.000000000000D+00
    0.480000000000D+02 0.433125000000D+02 0.426089176896D-08-0.272667790860D+01
    0.234320759773D-05 0.162240229547D-01 0.813603401184D-05 0.515373439598D+04
    0.187200000000D+06 0.106170773506D-06-0.961759794550D+00 0.253319740295D-06
    0.967586292973D+00 0.220500000000D+03-0.130990623865D+01-0.775389440940D-08
    0.121433629627D-09 0.100000000000D+01 0.228900000000D+04 0.000000000000D+00
    0.200000000000D+01 0.000000000000D+00-0.176951289177D-07 0.480000000000D+02
    0.185682000000D+06 0.400000000000D+01 0.000000000000D+00 0.000000000000D+00
 3 23 11 21  4  0  0.0-0.866129994392D-07 0.259205990005D-10 0.000000000000D+00
    0.120000000000D+02-0.119375000000D+02 0.434339520556D-08-0.228611388822D+00
   -0.627711415291D-06 0.506732123904D-02 0.443123281002D-05 0.515356208420D+04
    0.187200000000D+06 0.931322574616D-08 0.169498674289D+00 0.316649675369D-07
    0.981853669255D+00 0.304031250000D+03 0.111625161819D+01-0.823641450830D-08
    0.550022910662D-10 0.100000000000D+01 0.228900000000D+04 0.000000000000D+00
    0.200000000000D+01 0.000000000000D+00 0.186264514923D-08 0.120000000000D+02
    0.185586000000D+06 0.400000000000D+01 0.000000000000D+00 0.000000000000D+00
 4 23 11 21  4  0  0.0 0.218588393182D-03 0.103455022327D-10 0.000000000000D+00
    0.220000000000D+02-0.757812500000D+02 0.446732893933D-08 0.280076592157D+01
   -0.402145087719D-05 0.271454651374D-02 0.854209065437D-05 0.515360753632D+04
    0.187200000000D+06-0.409781932831D-07 0.124937226409D+01 0.111758708954D-07
    0.963400365012D+00 0.217062500000D+03-0.305394407029D+01-0.801354808216D-08
   -0.173578658819D-09 0.100000000000D+01 0.228900000000D+04 0.000000000000D+00
    0.200000000000D+01 0.000000000000D+00-0.419095158577D-08 0.278000000000D+03
    0.180018000000D+06 0.400000000000D+01 0.000000000000D+00 0.000000000000D+00
 5 23 11 21  4  0  0.0-0.151173211634D-03-0.147792889038D-11 0.000000000000D+00
    0.970000000000D+02 0.309375000000D+01 0.463340728573D-08-0.288684738314D+01
    0.189989805222D-06 0.586963200476D-02 0.408105552196D-05 0.515375858688D+04
    0.187200000000D+06 0.745058059692D-07 0.120636435095D+00-0.298023223877D-07
    0.968868615278D+00 0.305281250000D+03 0.124125311849D+01-0.827248743945D-08
    0.138220043134D-09 0.100000000000D+01 0.228900000000D+04 0.000000000000D+00
    0.280000000000D+01 0.000000000000D+00-0.111758708954D-07 0.970000000000D+02
    0.180018000000D+06 0.400000000000D+01 0.000000000000D+00 0.000000000000D+00
 6 23 11 21  4  0  0.0 0.500345602632D-03-0.103455022327D-10 0.000000000000D+00
    0.750000000000D+02 0.527812500000D+02 0.377622872366D-08 0.112769093976D+01
    0.263936817646D-05 0.299986591563D-02 0.873953104019D-05 0.515378659058D+04
    0.187200000000D+06 0.670552253723D-07-0.867590526011D+00-0.260770320892D-07
    0.989646905966D+00 0.224437500000D+03-0.827953183436D+00-0.778996734055D-08
    0.750031241812D-10 0.100000000000D+01 0.228900000000D+04 0.000000000000D+00
    0.200000000000D+01 0.000000000000D+00 0.372529029846D-08 0.750000000000D+02
    0.181932000000D+06 0.400000000000D+01 0.000000000000D+00 0.000000000000D+00
 7 23 11 21  4  0  0.0 0.803265720606D-05-0.989075488178D-11 0.000000000000D+00
    0.750000000000D+02 0.155625000000D+02 0.471555356459D-08 0.217945194589D+00
    0.953674316406D-06 0.176520438399D-01 0.107437372208D-04 0.515370133400D+04
    0.187200000000D+06-0.238418579102D-06 0.226362068742D+01 0.365078449249D-06
    0.950230528390D+00 0.170843750000D+03-0.216608738756D+01-0.830784605514D-08
    0.214651798252D-09 0.100000000000D+01 0.228900000000D+04 0.000000000000D+00
    0.200000000000D+01 0.000000000000D+00-0.111758708954D-07 0.750000000000D+02
    0.180018000000D+06 0.400000000000D+01 0.000000000000D+00 0.000000000000D+00
 8 23 11 21  4  0  0.0-0.153101980686D-03-0.181898940355D-11 0.000000000000D+00
    0.790000000000D+02 0.346875000000D+01 0.468412368398D-08 0.303960754918D+01
    0.245869159698D-06 0.893652054947D-02 0.764615833759D-05 0.515378480530D+04
    0.187200000000D+06-0.141561031342D-06-0.195714649617D+01-0.242143869400D-07
    0.955918665484D+00 0.231687500000D+03 0.277174658763D+00-0.804390648956D-08
   -0.270368404786D-09 0.100000000000D+01 0.228900000000D+04 0.000000000000D+00
    0.200000000000D+01 0.000000000000D+00 0.512227416039D-08 0.790000000000D+02
    0.180018000000D+06 0.400000000000D+01 0.000000000000D+00 0.000000000000D+00
 9 23 11 21  4  0  0.0 0.324705615640D-05 0.113686837722D-10 0.000000000000D+00
    0.970000000000D+02-0.777500000000D+02 0.462162108050D-08-0.272666080855D+01
   -0.403076410294D-05 0.297806237359D-02 0.818632543087D-05 0.515377244186D+04
    0.187200000000D+06 0.186264514923D-07 0.119127890063D+01 0.391155481338D-07
    0.956852484129D+00 0.221312500000D+03 0.198819983191D+01-0.809212278368D-08
   -0.203937066226D-09 0.100000000000D+01 0.228900000000D+04 0.000000000000D+00
    0.280000000000D+01 0.000000000000D+00 0.931322574616D-09 0.970000000000D+02
    0.180018000000D+06 0.400000000000D+01 0.000000000000D+00 0.000000000000D+00
10 23 11 21  4  0  0.0-0.622160732746D-04-0.147792889038D-11 0.000000000000D+00
    0.550000000000D+02-0.121875000000D+01 0.425624871842D-08-0.118140969100D+01
   -0.109896063805D-06 0.911469710991D-02 0.435113906860D-05 0.515368474197D+04
    0.187200000000D+06 0.260770320892D-06 0.166909512634D+00 0.596046447754D-07
    0.981558164192D+00 0.306687500000D+03-0.242504370428D+01-0.807926510525D-08
    0.675028117631D-10 0.100000000000D+01 0.228900000000D+04 0.000000000000D+00
    0.200000000000D+01 0.000000000000D+00 0.232830643654D-08 0.550000000000D+02
    0.186798000000D+06 0.400000000000D+01 0.000000000000D+00 0.000000000000D+00
11 23 11 21  4  0  0.0-0.468894839287D-03-0.160298441187D-10 0.000000000000D+00
    0.169000000000D+03 0.559375000000D+02 0.432482300338D-08 0.234624249110D+01
    0.286661088467D-05 0.127842114307D-02 0.897794961929D-05 0.515363160706D+04
    0.187200000000D+06-0.204890966415D-07-0.830309173504D+00-0.167638063431D-07
    0.966036043073D+00 0.209218750000D+03-0.258532598296D+01-0.805104964425D-08
    0.130005415247D-09 0.100000000000D+01 0.228900000000D+04 0.000000000000D+00
    0.200000000000D+01 0.000000000000D+00-0.838190317154D-08 0.681000000000D+03
    0.185058000000D+06 0.400000000000D+01 0.000000000000D+00 0.000000000000D+00
12 23 11 21  4  0  0.0-0.449226703495D-03-0.409272615798D-11 0.000000000000D+00
    0.400000000000D+01 0.403750000000D+02 0.484627329531D-08-0.451656710824D+00
    0.206939876080D-05 0.873891660012D-02 0.637769699097D-05 0.515374982452D+04
    0.187200000000D+06-0.782310962677D-07-0.290470727953D+01 0.109896063805D-06
    0.964227279456D+00 0.265375000000D+03 0.139566479616D+01-0.835427656058D-08
    0.135005623526D-09 0.100000000000D+01 0.228900000000D+04 0.000000000000D+00
    0.200000000000D+01 0.000000000000D+00-0.125728547573D-07 0.400000000000D+01
    0.183078000000D+06 0.400000000000D+01 0.000000000000D+00 0.000000000000D+00
13 23 11 21  4  0  0.0 0.597509089857D-03 0.409272615798D-11 0.000000000000D+00
    0.470000000000D+02-0.989062500000D+02 0.420338937375D-08 0.271731392797D+01
   -0.509805977344D-05 0.769836234395D-02 0.953860580921D-05 0.515366576004D+04
    0.187200000000D+06 0.745058059692D-07 0.135437054379D+01-0.670552253723D-07
    0.970155933449D+00 0.197875000000D+03 0.955107297470D+00-0.783818363467D-08
   -0.173935816554D-09 0.100000000000D+01 0.228900000000D+04 0.000000000000D+00
    0.200000000000D+01 0.000000000000D+00-0.116415321827D-07 0.470000000000D+02
    0.180018000000D+06 0.400000000000D+01 0.000000000000D+00 0.000000000000D+00
14 23 11 21  4  0  0.0 0.249139033258D-03 0.106865627458D-10 0.000000000000D+00
    0.810000000000D+02 0.349375000000D+02 0.513092800946D-08-0.500623261928D+00
    0.186823308468D-05 0.369266711641D-02 0.604055821896D-05 0.515367333031D+04
    0.187200000000D+06 0.763684511185D-07-0.294616260064D+01 0.111758708954D-07
    0.947569129303D+00 0.254937500000D+03-0.295321152804D+01-0.842963684250D-08
    0.689314426998D-10 0.100000000000D+01 0.228900000000D+04 0.000000000000D+00
    0.200000000000D+01 0.000000000000D+00-0.791624188423D-08 0.849000000000D+03
    0.180018000000D+06 0.400000000000D+01 0.000000000000D+00 0.000000000000D+00
